[
    {
        "Altitude(m)": 560893.9123625545,
        "Argument of Periapsis(deg)": 0.0,
        "Eccentricity": 0.0,
        "Inclination(deg)": 53.0,
        "Latitude(deg)": -25.776363107955383,
        "Longitude(deg)": 3.813343194215092,
        "Mean Anomaly(deg)": -32.72730000000001,
        "RAAN(deg)": 125.00000000000001,
        "Satellite Name": "Starlink Shell 1 570",
        "Satellite Number": 570,
        "Semi-Major Axis(m)": 6931778.249405717,
        "Time(s)": 0
    },
    {
        "Altitude(m)": 560723.3025462023,
        "Argument of Periapsis(deg)": 0.00034857847951123687,
        "Eccentricity": 0.0,
        "Inclination(deg)": 53.0,
        "Latitude(deg)": -25.307402166267707,
        "Longitude(deg)": 4.233435556269619,
        "Mean Anomaly(deg)": -32.100468796443366,
        "RAAN(deg)": 124.99948122992254,
        "Satellite Name": "Starlink Shell 1 570",
        "Satellite Number": 570,
        "Semi-Major Axis(m)": 6931778.249405717,
        "Time(s)": 10
    },
    {
        "Altitude(m)": 560553.5075707437,
        "Argument of Periapsis(deg)": 0.0006971569590224737,
        "Eccentricity": 0.0,
        "Inclination(deg)": 53.0,
        "Latitude(deg)": -24.83696459596355,
        "Longitude(deg)": 4.6500012877864245,
        "Mean Anomaly(deg)": -31.473637592886583,
        "RAAN(deg)": 124.99896245984506,
        "Satellite Name": "Starlink Shell 1 570",
        "Satellite Number": 570,
        "Semi-Major Axis(m)": 6931778.249405717,
        "Time(s)": 20
    },
    {
        "Altitude(m)": 560384.5890407315,
        "Argument of Periapsis(deg)": 0.0010457354385337105,
        "Eccentricity": 0.0,
        "Inclination(deg)": 53.0,
        "Latitude(deg)": -24.36509134809417,
        "Longitude(deg)": 5.063130788803653,
        "Mean Anomaly(deg)": -30.846806389329885,
        "RAAN(deg)": 124.99844368976758,
        "Satellite Name": "Starlink Shell 1 570",
        "Satellite Number": 570,
        "Semi-Major Axis(m)": 6931778.249405717,
        "Time(s)": 30
    },
    {
        "Altitude(m)": 560216.6080217352,
        "Argument of Periapsis(deg)": 0.0013943139180449475,
        "Eccentricity": 0.0,
        "Inclination(deg)": 53.0,
        "Latitude(deg)": -23.891822546375565,
        "Longitude(deg)": 5.472913719620348,
        "Mean Anomaly(deg)": -30.219975185773077,
        "RAAN(deg)": 124.99792491969013,
        "Satellite Name": "Starlink Shell 1 570",
        "Satellite Number": 570,
        "Semi-Major Axis(m)": 6931778.249405717,
        "Time(s)": 40
    },
    {
        "Altitude(m)": 560049.6250129914,
        "Argument of Periapsis(deg)": 0.0017428923975561844,
        "Eccentricity": 0.0,
        "Inclination(deg)": 53.0,
        "Latitude(deg)": -23.41719751303829,
        "Longitude(deg)": 5.879438007771579,
        "Mean Anomaly(deg)": -29.593143982216404,
        "RAAN(deg)": 124.99740614961264,
        "Satellite Name": "Starlink Shell 1 570",
        "Satellite Number": 570,
        "Semi-Major Axis(m)": 6931778.249405717,
        "Time(s)": 50
    },
    {
        "Altitude(m)": 559883.6999202813,
        "Argument of Periapsis(deg)": 0.002091470877067421,
        "Eccentricity": 0.0,
        "Inclination(deg)": 53.0,
        "Latitude(deg)": -22.941254794154048,
        "Longitude(deg)": 6.28279036927315,
        "Mean Anomaly(deg)": -28.966312778659763,
        "RAAN(deg)": 124.99688737953518,
        "Satellite Name": "Starlink Shell 1 570",
        "Satellite Number": 570,
        "Semi-Major Axis(m)": 6931778.249405717,
        "Time(s)": 60
    },
    {
        "Altitude(m)": 559718.8920291356,
        "Argument of Periapsis(deg)": 0.0024400493565786582,
        "Eccentricity": 0.0,
        "Inclination(deg)": 53.0,
        "Latitude(deg)": -22.464032184444864,
        "Longitude(deg)": 6.683056831126628,
        "Mean Anomaly(deg)": -28.339481575103004,
        "RAAN(deg)": 124.9963686094577,
        "Satellite Name": "Starlink Shell 1 570",
        "Satellite Number": 570,
        "Semi-Major Axis(m)": 6931778.249405717,
        "Time(s)": 70
    },
    {
        "Altitude(m)": 559555.2599782724,
        "Argument of Periapsis(deg)": 0.002788627836089895,
        "Eccentricity": 0.0,
        "Inclination(deg)": 53.0,
        "Latitude(deg)": -21.985566751579352,
        "Longitude(deg)": 7.080321742087766,
        "Mean Anomaly(deg)": -27.71265037154633,
        "RAAN(deg)": 124.99584983938023,
        "Satellite Name": "Starlink Shell 1 570",
        "Satellite Number": 570,
        "Semi-Major Axis(m)": 6931778.249405717,
        "Time(s)": 80
    },
    {
        "Altitude(m)": 559392.8617333848,
        "Argument of Periapsis(deg)": 0.0031372063156011316,
        "Eccentricity": 0.0,
        "Inclination(deg)": 53.0,
        "Latitude(deg)": -21.50589485995348,
        "Longitude(deg)": 7.474668297328872,
        "Mean Anomaly(deg)": -27.085819167989573,
        "RAAN(deg)": 124.99533106930275,
        "Satellite Name": "Starlink Shell 1 570",
        "Satellite Number": 570,
        "Semi-Major Axis(m)": 6931778.249405717,
        "Time(s)": 90
    },
    {
        "Altitude(m)": 559231.7545612421,
        "Argument of Periapsis(deg)": 0.0034857847951123688,
        "Eccentricity": 0.0,
        "Inclination(deg)": 53.0,
        "Latitude(deg)": -21.025052193965227,
        "Longitude(deg)": 7.866179064014673,
        "Mean Anomaly(deg)": -26.458987964432826,
        "RAAN(deg)": 124.9948122992253,
        "Satellite Name": "Starlink Shell 1 570",
        "Satellite Number": 570,
        "Semi-Major Axis(m)": 6931778.249405717,
        "Time(s)": 100
    },
    {
        "Altitude(m)": 559071.9950040904,
        "Argument of Periapsis(deg)": 0.003834363274623606,
        "Eccentricity": 0.0,
        "Inclination(deg)": 53.0,
        "Latitude(deg)": -20.543073780790504,
        "Longitude(deg)": 8.25493499481974,
        "Mean Anomaly(deg)": -25.832156760876142,
        "RAAN(deg)": 124.99429352914781,
        "Satellite Name": "Starlink Shell 1 570",
        "Satellite Number": 570,
        "Semi-Major Axis(m)": 6931778.249405717,
        "Time(s)": 110
    },
    {
        "Altitude(m)": 558913.6388544332,
        "Argument of Periapsis(deg)": 0.004182941754134842,
        "Eccentricity": 0.0,
        "Inclination(deg)": 53.0,
        "Latitude(deg)": -20.05999401266228,
        "Longitude(deg)": 8.641015955043335,
        "Mean Anomaly(deg)": -25.205325557319398,
        "RAAN(deg)": 124.99377475907035,
        "Satellite Name": "Starlink Shell 1 570",
        "Satellite Number": 570,
        "Semi-Major Axis(m)": 6931778.249405717,
        "Time(s)": 120
    },
    {
        "Altitude(m)": 558756.7411301543,
        "Argument of Periapsis(deg)": 0.004531520233646079,
        "Eccentricity": 0.0,
        "Inclination(deg)": 53.0,
        "Latitude(deg)": -19.575846668663992,
        "Longitude(deg)": 9.024501250362881,
        "Mean Anomaly(deg)": -24.57849435376275,
        "RAAN(deg)": 124.99325598899287,
        "Satellite Name": "Starlink Shell 1 570",
        "Satellite Number": 570,
        "Semi-Major Axis(m)": 6931778.249405717,
        "Time(s)": 130
    },
    {
        "Altitude(m)": 558601.3560500154,
        "Argument of Periapsis(deg)": 0.0048800987131573164,
        "Eccentricity": 0.0,
        "Inclination(deg)": 53.0,
        "Latitude(deg)": -19.090664936047062,
        "Longitude(deg)": 9.4054686422779,
        "Mean Anomaly(deg)": -23.951663150205967,
        "RAAN(deg)": 124.99273721891538,
        "Satellite Name": "Starlink Shell 1 570",
        "Satellite Number": 570,
        "Semi-Major Axis(m)": 6931778.249405717,
        "Time(s)": 140
    },
    {
        "Altitude(m)": 558447.5370095248,
        "Argument of Periapsis(deg)": 0.005228677192668553,
        "Eccentricity": 0.0,
        "Inclination(deg)": 53.0,
        "Latitude(deg)": -18.60448143107823,
        "Longitude(deg)": 9.783994876917644,
        "Mean Anomaly(deg)": -23.32483194664922,
        "RAAN(deg)": 124.99221844883792,
        "Satellite Name": "Starlink Shell 1 570",
        "Satellite Number": 570,
        "Semi-Major Axis(m)": 6931778.249405717,
        "Time(s)": 150
    },
    {
        "Altitude(m)": 558295.3365572148,
        "Argument of Periapsis(deg)": 0.00557725567217979,
        "Eccentricity": 0.0,
        "Inclination(deg)": 53.0,
        "Latitude(deg)": -18.117328219427083,
        "Longitude(deg)": 10.160156214275974,
        "Mean Anomaly(deg)": -22.69800074309256,
        "RAAN(deg)": 124.99169967876047,
        "Satellite Name": "Starlink Shell 1 570",
        "Satellite Number": 570,
        "Semi-Major Axis(m)": 6931778.249405717,
        "Time(s)": 160
    },
    {
        "Altitude(m)": 558144.8063713317,
        "Argument of Periapsis(deg)": 0.0059258341516910265,
        "Eccentricity": 0.0,
        "Inclination(deg)": 53.0,
        "Latitude(deg)": -17.629236836107815,
        "Longitude(deg)": 10.534027444940358,
        "Mean Anomaly(deg)": -22.07116953953579,
        "RAAN(deg)": 124.99118090868296,
        "Satellite Name": "Starlink Shell 1 570",
        "Satellite Number": 570,
        "Semi-Major Axis(m)": 6931778.249405717,
        "Time(s)": 170
    },
    {
        "Altitude(m)": 557995.9972369325,
        "Argument of Periapsis(deg)": 0.006274412631202263,
        "Eccentricity": 0.0,
        "Inclination(deg)": 53.0,
        "Latitude(deg)": -17.14023830498105,
        "Longitude(deg)": 10.905682420006023,
        "Mean Anomaly(deg)": -21.444338335979147,
        "RAAN(deg)": 124.9906621386055,
        "Satellite Name": "Starlink Shell 1 570",
        "Satellite Number": 570,
        "Semi-Major Axis(m)": 6931778.249405717,
        "Time(s)": 180
    }
]